NORAD_CAT_ID,OBJECT_NAME,OBJECT_TYPE,EPOCH,MEAN_MOTION,ECCENTRICITY,INCLINATION,RA_OF_ASC_NODE,ARG_OF_PERICENTER,MEAN_ANOMALY,BSTAR,MEAN_MOTION_DOT,MEAN_MOTION_DDOT,TLE_LINE0,TLE_LINE1,TLE_LINE2,SEMIMAJOR_AXIS,PERIOD,APOGEE,PERIGEE,DECAYED
52343.0,STARLINK-3849,PAYLOAD,2022-12-10 13:27:55,15.08845282,0.0001578,53.2196,129.387,334.2102,25.8811,0.0016277,0.00025716,0.0,0 STARLINK-3849,1 52343U 22045N   22344.56106464  .00025716  00000-0  16277-2 0  9993,2 52343  53.2196 129.3870 0001578 334.2102  25.8811 15.08845282 36738,6917.864000000001,95.437,540.821,538.638,0.0
52343.0,STARLINK-3849,PAYLOAD,2022-12-10 15:03:24,15.08776952,0.0001912,53.2202,129.09,345.3548,14.7389,0.0010309,0.00016129,0.0,0 STARLINK-3849,1 52343U 22045N   22344.62736452  .00016129  00000-0  10309-2 0  9994,2 52343  53.2202 129.0900 0001912 345.3548  14.7389 15.08776952 36741,6918.073,95.442,541.261,538.615,0.0
52343.0,STARLINK-3849,PAYLOAD,2022-12-11 10:07:58,15.088737900000002,0.0001553,53.2206,125.5206,33.013000000000005,327.0959,-0.00043339,-7.185e-05,0.0,0 STARLINK-3849,1 52343U 22045N   22345.42220741 -.00007185  00000-0 -43339-3 0  9996,2 52343  53.2206 125.5206 0001553  33.0130 327.0959 15.08873790 36868,6917.776999999999,95.435,540.716,538.568,0.0
52343.0,STARLINK-3849,PAYLOAD,2022-12-11 13:18:47,15.08804689,0.0002234,53.2202,124.9256,356.6294,3.4683,0.00061619,9.523e-05,0.0,0 STARLINK-3849,1 52343U 22045N   22345.55471239  .00009523  00000-0  61619-3 0  9997,2 52343  53.2202 124.9256 0002234 356.6294   3.4683 15.08804689 36886,6917.988,95.44,541.399,538.308,0.0
52343.0,STARLINK-3849,PAYLOAD,2022-12-11 16:29:33,15.08837538,0.0003194,53.2204,124.3314,47.7092,312.4171,0.00011236,1.5e-05,0.0,0 STARLINK-3849,1 52343U 22045N   22345.68719009  .00001500  00000-0  11236-3 0  9998,2 52343  53.2204 124.3314 0003194  47.7092 312.4171 15.08837538 36904,6917.888000000001,95.438,541.962,537.543,0.0
52343.0,STARLINK-3849,PAYLOAD,2022-12-12 08:23:25,15.08832575,0.0003307,53.2193,121.3536,53.1962,306.9333,6.5286e-05,7.4999999999999985e-06,0.0,0 STARLINK-3849,1 52343U 22045N   22346.34959690  .00000750  00000-0  65286-4 0  9995,2 52343  53.2193 121.3536 0003307  53.1962 306.9333 15.08832575 37003,6917.903,95.438,542.056,537.48,0.0
52343.0,STARLINK-3849,PAYLOAD,2022-12-13 09:49:34,15.0884119,0.000339,53.2201,116.5952,54.3628,305.768,0.00011033,1.468e-05,0.0,0 STARLINK-3849,1 52343U 22045N   22347.40943154  .00001468  00000-0  11033-3 0  9998,2 52343  53.2201 116.5952 0003390  54.3628 305.7680 15.08841190 37167,6917.877,95.437,542.087,537.3969999999998,0.0
52343.0,STARLINK-3849,PAYLOAD,2022-12-14 01:43:26,15.08834907,0.0003379,53.2191,113.6217,52.1049,308.0248,7.0901e-05,8.400000000000001e-06,0.0,0 STARLINK-3849,1 52343U 22045N   22348.07183753  .00000840  00000-0  70901-4 0  9996,2 52343  53.2191 113.6217 0003379  52.1049 308.0248 15.08834907 37262,6917.896,95.438,542.099,537.423,0.0
52343.0,STARLINK-3849,PAYLOAD,2022-12-14 16:01:51,15.08890541,0.0002846,53.218,110.945,47.7229,312.4004,0.00049069,7.541e-05,0.0,0 STARLINK-3849,1 52343U 22045N   22348.66795253  .00007541  00000-0  49069-3 0  9990,2 52343  53.2180 110.9450 0002846  47.7229 312.4004 15.08890541 37352,6917.726,95.434,541.56,537.622,0.0
52343.0,STARLINK-3849,PAYLOAD,2022-12-15 07:55:46,15.08830845,0.0003052,53.2184,107.972,48.9628,311.1628,-2.8922000000000013e-06,-3.35e-06,0.0,0 STARLINK-3849,1 52343U 22045N   22349.33040505 -.00000335  00000-0 -28922-5 0  9991,2 52343  53.2184 107.9720 0003052  48.9628 311.1628 15.08830845 37458,6917.908,95.438,541.885,537.6619999999998,0.0
52343.0,STARLINK-3849,PAYLOAD,2022-12-15 14:17:19,15.08837102,0.0003038,53.219,106.7829,48.8984,311.2270000000001,4.6578e-05,4.53e-06,0.0,0 STARLINK-3849,1 52343U 22045N   22349.59536085  .00000453  00000-0  46578-4 0  9997,2 52343  53.2190 106.7829 0003038  48.8984 311.2270 15.08837102 37491,6917.889,95.438,541.856,537.653,0.0
52343.0,STARLINK-3849,PAYLOAD,2022-12-15 17:28:06,15.08828904,0.0003142,53.2189,106.1887,42.49100000000001,317.6325,-2.5426e-05,-6.93e-06,0.0,0 STARLINK-3849,1 52343U 22045N   22349.72784867 -.00000693  00000-0 -25426-4 0  9992,2 52343  53.2189 106.1887 0003142  42.4910 317.6325 15.08828904 37516,6917.9140000000025,95.438,541.953,537.606,0.0
52343.0,STARLINK-3849,PAYLOAD,2022-12-16 14:08:06,15.08837864,0.0002935,53.2197,102.3226,47.3237,312.8002,6.826899999999999e-05,7.98e-06,0.0,0 STARLINK-3849,1 52343U 22045N   22350.58896328  .00000798  00000-0  68269-4 0  9990,2 52343  53.2197 102.3226 0002935  47.3237 312.8002 15.08837864 37643,6917.887,95.438,541.7819999999998,537.722,0.0
52343.0,STARLINK-3849,PAYLOAD,2022-12-16 18:54:15,15.08838668,0.0003028,53.2193,101.4312,45.6431,314.4809,4.2739e-05,3.92e-06,0.0,0 STARLINK-3849,1 52343U 22045N   22350.78768388  .00000392  00000-0  42739-4 0  9990,2 52343  53.2193 101.4312 0003028  45.6431 314.4809 15.08838668 37675,6917.884,95.438,541.844,537.655,0.0
52343.0,STARLINK-3849,PAYLOAD,2022-12-17 12:23:30,15.08834962,0.0002967,53.2191,98.1601,48.6941,311.4306,0.00010815,1.433e-05,0.0,0 STARLINK-3849,1 52343U 22045N   22351.51632846  .00001433  00000-0  10815-3 0  9997,2 52343  53.2191  98.1601 0002967  48.6941 311.4306 15.08834962 37780,6917.896,95.438,541.813,537.7080000000002,0.0
52343.0,STARLINK-3849,PAYLOAD,2022-12-17 13:58:53,15.08836961,0.000296,53.2191,97.8627,48.6579,311.4667,0.00012418,1.688e-05,0.0,0 STARLINK-3849,1 52343U 22045N   22351.58256715  .00001688  00000-0  12418-3 0  9994,2 52343  53.2191  97.8627 0002960  48.6579 311.4667 15.08836961 37796,6917.89,95.438,541.802,537.707,0.0
52343.0,STARLINK-3849,PAYLOAD,2022-12-18 05:52:45,15.08839668,0.0002805,53.2196,94.8894,46.258,313.8644,0.00014054,1.949e-05,0.0,0 STARLINK-3849,1 52343U 22045N   22352.24496548  .00001949  00000-0  14054-3 0  9996,2 52343  53.2196  94.8894 0002805  46.2580 313.8644 15.08839668 37897,6917.880999999999,95.438,541.687,537.806,0.0
52343.0,STARLINK-3849,PAYLOAD,2022-12-18 13:49:41,15.08839323,0.0003067,53.2203,93.4028,47.8867,312.2386,-1.1653e-05,-4.74e-06,0.0,0 STARLINK-3849,1 52343U 22045N   22352.57617075 -.00000474  00000-0 -11653-4 0  9999,2 52343  53.2203  93.4028 0003067  47.8867 312.2386 15.08839323 37946,6917.882,95.438,541.869,537.626,0.0
52343.0,STARLINK-3849,PAYLOAD,2022-12-19 07:18:55,15.08844155,0.0002773,53.2192,90.1309,43.7616,316.3596,0.000146,2.036e-05,0.0,0 STARLINK-3849,1 52343U 22045N   22353.30480364  .00002036  00000-0  14600-3 0  9998,2 52343  53.2192  90.1309 0002773  43.7616 316.3596 15.08844155 38059,6917.868,95.437,541.651,537.814,0.0
52343.0,STARLINK-3849,PAYLOAD,2022-12-20 13:31:13,15.08847913,0.0002831,53.2182,84.4822,39.85,320.27,0.00012749,1.742e-05,0.0,0 STARLINK-3849,1 52343U 22045N   22354.56335518  .00001742  00000-0  12749-3 0  9992,2 52343  53.2182  84.4822 0002831  39.8500 320.2700 15.08847913 38244,6917.856,95.437,541.68,537.763,0.0
52343.0,STARLINK-3849,PAYLOAD,2022-12-21 10:11:15,15.08838069,0.0002773,53.2173,80.6155,39.6143,320.5051,-4.2692e-05,-9.68e-06,0.0,0 STARLINK-3849,1 52343U 22045N   22355.42448309 -.00000968  00000-0 -42692-4 0  9993,2 52343  53.2173  80.6155 0002773  39.6143 320.5051 15.08838069 38375,6917.886,95.438,541.67,537.8330000000002,0.0
52343.0,STARLINK-3849,PAYLOAD,2022-12-21 22:54:21,15.08827719,0.0002647,53.2177,78.2373,35.5327,324.5841,-0.00016193,-2.864e-05,0.0,0 STARLINK-3849,1 52343U 22045N   22355.95441509 -.00002864  00000-0 -16193-3 0  9999,2 52343  53.2177  78.2373 0002647  35.5327 324.5841 15.08827719 38453,6917.918000000002,95.438,541.614,537.952,0.0
52343.0,STARLINK-3849,PAYLOAD,2022-12-22 11:37:26,15.08833954,0.0002624,53.2176,75.8582,34.0713,326.0447,-8.6424e-05,-1.664e-05,0.0,0 STARLINK-3849,1 52343U 22045N   22356.48433117 -.00001664  00000-0 -86424-4 0  9996,2 52343  53.2176  75.8582 0002624  34.0713 326.0447 15.08833954 38531,6917.899,95.438,541.5790000000002,537.9490000000002,0.0
52343.0,STARLINK-3849,PAYLOAD,2022-12-22 17:58:58,15.08836937,0.0002728,53.2175,74.6692,34.7077,325.4093,9.6991e-06,-1.34e-06,0.0,0 STARLINK-3849,1 52343U 22045N   22356.74928883 -.00000134  00000-0  96991-5 0  9995,2 52343  53.2175  74.6692 0002728  34.7077 325.4093 15.08836937 38572,6917.89,95.438,541.6419999999998,537.868,0.0
52343.0,STARLINK-3849,PAYLOAD,2022-12-23 11:28:13,15.08827302,0.000292,53.2182,71.3964,32.8367,327.2806,0.00014029,1.944e-05,0.0,0 STARLINK-3849,1 52343U 22045N   22357.47793495  .00001944  00000-0  14029-3 0  9994,2 52343  53.2182  71.3964 0002920  32.8367 327.2806 15.08827302 38681,6917.919,95.438,541.804,537.764,0.0
52343.0,STARLINK-3849,PAYLOAD,2022-12-23 16:14:22,15.08834048,0.0002951,53.2183,70.5039,33.0237,327.0939,0.00018856,2.713e-05,0.0,0 STARLINK-3849,1 52343U 22045N   22357.67665072  .00002713  00000-0  18856-3 0  9992,2 52343  53.2183  70.5039 0002951  33.0237 327.0939 15.08834048 38713,6917.899,95.438,541.805,537.722,0.0
52343.0,STARLINK-3849,PAYLOAD,2022-12-23 22:35:54,15.08845873,0.0002729,53.2179,69.3153,33.9193,326.1973,0.00022012,3.217e-05,0.0,0 STARLINK-3849,1 52343U 22045N   22357.94160307  .00003217  00000-0  22012-3 0  9992,2 52343  53.2179  69.3153 0002729  33.9193 326.1973 15.08845873 38754,6917.861999999999,95.437,541.615,537.84,0.0
52343.0,STARLINK-3849,PAYLOAD,2022-12-24 11:19:00,15.08828076,0.0002575,53.2182,66.9359,38.0157,322.1017,0.0003627,5.487e-05,0.0,0 STARLINK-3849,1 52343U 22045N   22358.47153409  .00005487  00000-0  36270-3 0  9998,2 52343  53.2182  66.9359 0002575  38.0157 322.1017 15.08828076 38834,6917.917,95.438,541.563,538.0,0.0
52343.0,STARLINK-3849,PAYLOAD,2022-12-24 16:05:09,15.08838681,0.000257,53.2178,66.0449,32.6989,327.4161,6.8365e-05,8e-06,0.0,0 STARLINK-3849,1 52343U 22045N   22358.67025251  .00000800  00000-0  68365-4 0  9998,2 52343  53.2178  66.0449 0002570  32.6989 327.4161 15.08838681 38862,6917.884,95.438,541.5269999999998,537.972,0.0
